{"type":"FeatureCollection","features":[{"type":"Feature","properties":{"name":"Kalkara","name_en":"Kalkara","region":"Malta Xlokk","region_sub":"Southern Harbour","geonunit":"Malta","adm0_a3":"MLT","iso_3166_2":"MT-21","adm1_code":"MLT-5950"},"geometry":{"type":"Polygon","coordinates":[[[14.5249,35.898],[14.548,35.89],[14.5412,35.886],[14.54,35.8827],[14.5332,35.8827],[14.5294,35.8816],[14.529,35.889],[14.5248,35.8904],[14.5195,35.8943],[14.5249,35.898]]]}},{"type":"Feature","properties":{"name":"Valletta","name_en":"Valletta","region":"Malta Xlokk","region_sub":"Southern Harbour","geonunit":"Malta","adm0_a3":"MLT","iso_3166_2":"MT-60","adm1_code":"MLT-5949"},"geometry":{"type":"Polygon","coordinates":[[[14.5139,35.9008],[14.5193,35.9],[14.5249,35.898],[14.5195,35.8943],[14.5154,35.8911],[14.5107,35.889],[14.5016,35.8952],[14.5072,35.8987],[14.5139,35.9008]]]}},{"type":"Feature","properties":{"name":"Sliema","name_en":"Sliema","region":"Malta Majjistral","region_sub":"Northern Harbour","geonunit":"Malta","adm0_a3":"MLT","iso_3166_2":"MT-56","adm1_code":"MLT-5936"},"geometry":{"type":"Polygon","coordinates":[[[14.5104,35.9246],[14.5129,35.9208],[14.514,35.9108],[14.5139,35.9008],[14.5072,35.8987],[14.5075,35.902],[14.4974,35.9038],[14.4929,35.9066],[14.4963,35.9148],[14.5104,35.9246]]]}},{"type":"Feature","properties":{"name":"San Giljan","name_en":"St. Julian's","name_alt":"St. Julian's","region":"Malta Majjistral","region_sub":"Northern Harbour","geonunit":"Malta","adm0_a3":"MLT","iso_3166_2":"MT-48","adm1_code":"MLT-5935"},"geometry":{"type":"Polygon","coordinates":[[[14.5014,35.9304],[14.5078,35.9285],[14.5104,35.9246],[14.4963,35.9148],[14.4929,35.9066],[14.4886,35.9047],[14.4856,35.9074],[14.4826,35.909],[14.482,35.9123],[14.4856,35.9147],[14.4859,35.9183],[14.4841,35.92],[14.4844,35.9227],[14.4915,35.9239],[14.5014,35.9304]]]}},{"type":"Feature","properties":{"name":"Pembroke","name_en":"Pembroke","region":"Malta Majjistral","region_sub":"Northern Harbour","geonunit":"Malta","adm0_a3":"MLT","iso_3166_2":"MT-40","adm1_code":"MLT-5934"},"geometry":{"type":"Polygon","coordinates":[[[14.4649,35.9466],[14.4787,35.937],[14.5014,35.9304],[14.4915,35.9239],[14.4844,35.9227],[14.4841,35.92],[14.4758,35.9194],[14.472,35.9203],[14.4708,35.9248],[14.4672,35.9274],[14.4625,35.9292],[14.4631,35.9357],[14.4649,35.9466]]]}},{"type":"Feature","properties":{"name":"Naxxar","name_en":"Naxxar","region":"Malta Majjistral","region_sub":"Northern","geonunit":"Malta","adm0_a3":"MLT","iso_3166_2":"MT-38","adm1_code":"MLT-5928"},"geometry":{"type":"Polygon","coordinates":[[[14.4382,35.9626],[14.4451,35.9604],[14.4649,35.9466],[14.4631,35.9357],[14.4625,35.9292],[14.4551,35.9289],[14.4507,35.9274],[14.4483,35.9256],[14.4471,35.92],[14.4474,35.9162],[14.4513,35.9129],[14.4483,35.9094],[14.4501,35.9058],[14.4465,35.9043],[14.4406,35.9035],[14.435,35.9058],[14.4338,35.9085],[14.4335,35.9114],[14.4329,35.9144],[14.432,35.9171],[14.43,35.9197],[14.4258,35.9203],[14.4223,35.9239],[14.4208,35.9256],[14.4223,35.9271],[14.4223,35.9301],[14.4202,35.9339],[14.4211,35.9381],[14.4243,35.9428],[14.4306,35.9511],[14.4382,35.9626]]]}},{"type":"Feature","properties":{"name":"San Pawl il-Bahar","name_en":"St. Paul's Bay","name_alt":"St. Paul's Bay","region":"Malta Majjistral","region_sub":"Northern","geonunit":"Malta","adm0_a3":"MLT","iso_3166_2":"MT-51","adm1_code":"MLT-5926"},"geometry":{"type":"Polygon","coordinates":[[[14.4058,35.9678],[14.4285,35.9657],[14.4382,35.9626],[14.4306,35.9511],[14.4243,35.9428],[14.4211,35.9381],[14.4202,35.9339],[14.4223,35.9301],[14.4223,35.9271],[14.4208,35.9256],[14.4223,35.9239],[14.4258,35.9203],[14.4229,35.9174],[14.4202,35.9156],[14.4175,35.9174],[14.4163,35.9206],[14.4137,35.9224],[14.4098,35.9248],[14.4045,35.9256],[14.3965,35.9245],[14.3945,35.923],[14.3956,35.9218],[14.3995,35.9221],[14.4024,35.9212],[14.4036,35.9183],[14.4072,35.9165],[14.4107,35.9153],[14.4116,35.9132],[14.4095,35.9117],[14.4057,35.91],[14.4033,35.9082],[14.4001,35.9085],[14.3956,35.91],[14.3921,35.9123],[14.3915,35.9162],[14.3903,35.9215],[14.3879,35.9242],[14.3806,35.9248],[14.3773,35.9254],[14.377,35.9283],[14.3797,35.9304],[14.3811,35.9333],[14.3794,35.9351],[14.3737,35.9363],[14.3717,35.941],[14.3723,35.9455],[14.3752,35.9472],[14.3832,35.9493],[14.3897,35.9529],[14.3998,35.9552],[14.4058,35.9678]]]}},{"type":"Feature","properties":{"name":"Mellieħa","name_en":"Mellieħa","name_alt":"Mellieha|Il-Mellieħa","region":"Malta Majjistral","region_sub":"Northern","geonunit":"Malta","adm0_a3":"MLT","iso_3166_2":"MT-30","adm1_code":"MLT-5925"},"geometry":{"type":"Polygon","coordinates":[[[14.3409,35.9256],[14.3382,35.947],[14.3325,35.9628],[14.322,35.9731],[14.3347,35.9824],[14.3475,35.9887],[14.3615,35.9924],[14.3773,35.9936],[14.3773,35.9862],[14.3682,35.9848],[14.3623,35.9824],[14.3494,35.9731],[14.4058,35.9678],[14.3998,35.9552],[14.3897,35.9529],[14.3832,35.9493],[14.3752,35.9472],[14.3723,35.9455],[14.3717,35.941],[14.3737,35.9363],[14.3717,35.9342],[14.3652,35.9336],[14.3616,35.9313],[14.3536,35.9283],[14.3471,35.9265],[14.3409,35.9256]]]}},{"type":"Feature","properties":{"name":"Mġarr","name_en":"Mġarr","name_alt":"Mgarr","region":"Malta Majjistral","region_sub":"Northern","geonunit":"Malta","adm0_a3":"MLT","iso_3166_2":"MT-31","adm1_code":"MLT-5924"},"geometry":{"type":"Polygon","coordinates":[[[14.3426,35.9002],[14.3426,35.9117],[14.3409,35.9256],[14.3471,35.9265],[14.3536,35.9283],[14.3616,35.9313],[14.3652,35.9336],[14.3717,35.9342],[14.3737,35.9363],[14.3794,35.9351],[14.3811,35.9333],[14.3797,35.9304],[14.377,35.9283],[14.3773,35.9254],[14.3806,35.9248],[14.3879,35.9242],[14.3903,35.9215],[14.3915,35.9162],[14.3921,35.9123],[14.3956,35.91],[14.4001,35.9085],[14.4033,35.9082],[14.4042,35.9052],[14.3998,35.904],[14.3945,35.904],[14.3874,35.9032],[14.3811,35.9026],[14.3782,35.8996],[14.3749,35.8993],[14.3711,35.9008],[14.3678,35.8993],[14.364,35.8993],[14.361,35.8967],[14.3587,35.8952],[14.3551,35.8955],[14.351,35.899],[14.3471,35.8981],[14.3426,35.9002]]]}},{"type":"Feature","properties":{"name":"Rabat","name_en":"Rabat","region":"Malta Majjistral","region_sub":"Western","geonunit":"Malta","adm0_a3":"MLT","iso_3166_2":"MT-46","adm1_code":"MLT-5923"},"geometry":{"type":"Polygon","coordinates":[[[14.3648,35.8644],[14.363,35.8667],[14.3599,35.8697],[14.3457,35.8759],[14.3426,35.8807],[14.3426,35.9002],[14.3471,35.8981],[14.351,35.899],[14.3551,35.8955],[14.3587,35.8952],[14.361,35.8967],[14.364,35.8993],[14.3678,35.8993],[14.3711,35.9008],[14.3749,35.8993],[14.3782,35.8996],[14.3811,35.9026],[14.3874,35.9032],[14.3945,35.904],[14.3998,35.904],[14.4042,35.9052],[14.4072,35.9023],[14.4098,35.9002],[14.4131,35.8975],[14.4125,35.894],[14.4116,35.8913],[14.4081,35.8904],[14.4036,35.8904],[14.3986,35.8901],[14.3956,35.8875],[14.3962,35.8833],[14.4024,35.8816],[14.4048,35.8798],[14.4098,35.8798],[14.4128,35.8795],[14.4125,35.8753],[14.4143,35.8742],[14.4163,35.8638],[14.4128,35.86],[14.4066,35.8591],[14.3986,35.8603],[14.3959,35.8632],[14.3953,35.8659],[14.393,35.868],[14.3877,35.868],[14.3773,35.8668],[14.3702,35.8671],[14.3648,35.8644]]]}},{"type":"Feature","properties":{"name":"Dingli","name_en":"Dingli","region":"Malta Majjistral","region_sub":"Western","geonunit":"Malta","adm0_a3":"MLT","iso_3166_2":"MT-07","adm1_code":"MLT-5947"},"geometry":{"type":"Polygon","coordinates":[[[14.3892,35.8395],[14.3815,35.843],[14.3648,35.8644],[14.3702,35.8671],[14.3773,35.8668],[14.3877,35.868],[14.393,35.868],[14.3953,35.8659],[14.3959,35.8632],[14.3986,35.8603],[14.398,35.857],[14.3939,35.8511],[14.3903,35.8484],[14.3892,35.8395]]]}},{"type":"Feature","properties":{"name":"Siġġiewi","name_en":"Siġġiewi","name_alt":"Siggiewi","region":"Malta Majjistral","region_sub":"Western","geonunit":"Malta","adm0_a3":"MLT","iso_3166_2":"MT-55","adm1_code":"MLT-5948"},"geometry":{"type":"Polygon","coordinates":[[[14.4288,35.8226],[14.4245,35.8237],[14.3892,35.8395],[14.3903,35.8484],[14.3939,35.8511],[14.398,35.857],[14.3986,35.8603],[14.4066,35.8591],[14.4128,35.86],[14.4163,35.8638],[14.4199,35.8641],[14.4229,35.8623],[14.4288,35.8603],[14.435,35.8579],[14.4412,35.8597],[14.4442,35.862],[14.4456,35.8644],[14.4516,35.8653],[14.4557,35.8647],[14.459,35.8623],[14.4607,35.8614],[14.4634,35.8626],[14.4666,35.8603],[14.4699,35.8603],[14.4705,35.8564],[14.4658,35.8532],[14.4622,35.8499],[14.4581,35.8493],[14.4572,35.8472],[14.4542,35.8461],[14.453,35.8431],[14.4507,35.8393],[14.4471,35.8384],[14.4442,35.8378],[14.4406,35.8351],[14.4415,35.8322],[14.4406,35.8304],[14.4362,35.8304],[14.4323,35.8283],[14.4288,35.8226]]]}},{"type":"Feature","properties":{"name":"Qrendi","name_en":"Qrendi","region":"Malta Xlokk","region_sub":"South Eastern","geonunit":"Malta","adm0_a3":"MLT","iso_3166_2":"MT-44","adm1_code":"MLT-5972"},"geometry":{"type":"Polygon","coordinates":[[[14.4536,35.8163],[14.4288,35.8226],[14.4323,35.8283],[14.4362,35.8304],[14.4406,35.8304],[14.4415,35.8322],[14.4406,35.8351],[14.4442,35.8378],[14.4471,35.8384],[14.4507,35.8393],[14.4563,35.8384],[14.461,35.8369],[14.4669,35.8378],[14.4681,35.8348],[14.4652,35.8336],[14.4649,35.8316],[14.4669,35.8301],[14.4646,35.8283],[14.4616,35.8262],[14.4557,35.8206],[14.4536,35.8163]]]}},{"type":"Feature","properties":{"name":"Żurrieq","name_en":"Żurrieq","name_alt":"Zurrieq","region":"Malta Xlokk","region_sub":"South Eastern","geonunit":"Malta","adm0_a3":"MLT","iso_3166_2":"MT-68","adm1_code":"MLT-5973"},"geometry":{"type":"Polygon","coordinates":[[[14.4976,35.8094],[14.4727,35.8114],[14.4536,35.8163],[14.4557,35.8206],[14.4616,35.8262],[14.4646,35.8283],[14.4669,35.8301],[14.4649,35.8316],[14.4652,35.8336],[14.4681,35.8348],[14.4669,35.8378],[14.4726,35.8381],[14.4764,35.8384],[14.4808,35.8369],[14.4835,35.8342],[14.4794,35.8307],[14.4797,35.8286],[14.4829,35.8259],[14.4862,35.8251],[14.4906,35.8268],[14.4945,35.8289],[14.498,35.8274],[14.5007,35.8265],[14.5042,35.8292],[14.509,35.8298],[14.5104,35.8256],[14.5125,35.8206],[14.5116,35.8188],[14.5072,35.8182],[14.5016,35.8197],[14.4989,35.8197],[14.4983,35.8174],[14.5004,35.8135],[14.4992,35.8117],[14.4976,35.8094]]]}},{"type":"Feature","properties":{"name":"Birżebbuġa","name_en":"Birżebbuġa","name_alt":"Birzebbugia","region":"Malta Xlokk","region_sub":"South Eastern","geonunit":"Malta","adm0_a3":"MLT","iso_3166_2":"MT-05","adm1_code":"MLT-5968"},"geometry":{"type":"Polygon","coordinates":[[[14.5403,35.829],[14.5325,35.822],[14.5275,35.8135],[14.5275,35.8012],[14.5115,35.8065],[14.5071,35.8087],[14.4976,35.8094],[14.4992,35.8117],[14.5004,35.8135],[14.4983,35.8174],[14.4989,35.8197],[14.5016,35.8197],[14.5072,35.8182],[14.5116,35.8188],[14.5125,35.8206],[14.5104,35.8256],[14.509,35.8298],[14.5131,35.8301],[14.5155,35.8325],[14.5163,35.8351],[14.519,35.836],[14.5237,35.8369],[14.5252,35.8398],[14.5288,35.8398],[14.5329,35.8384],[14.5377,35.8339],[14.5403,35.829]]]}},{"type":"Feature","properties":{"name":"Marsaxlokk","name_en":"Marsaxlokk","region":"Malta Xlokk","region_sub":"South Eastern","geonunit":"Malta","adm0_a3":"MLT","iso_3166_2":"MT-28","adm1_code":"MLT-5963"},"geometry":{"type":"Polygon","coordinates":[[[14.5658,35.8417],[14.5618,35.8298],[14.548,35.836],[14.5403,35.829],[14.5377,35.8339],[14.5329,35.8384],[14.5288,35.8398],[14.5252,35.8398],[14.5246,35.8446],[14.5308,35.8443],[14.5332,35.8461],[14.5391,35.8455],[14.545,35.8428],[14.5483,35.8458],[14.5536,35.8437],[14.5592,35.8431],[14.5658,35.8417]]]}},{"type":"Feature","properties":{"name":"Marsaskala","name_en":"Marsaskala","name_alt":"Marsascala","region":"Malta Xlokk","region_sub":"South Eastern","geonunit":"Malta","adm0_a3":"MLT","iso_3166_2":"MT-27","adm1_code":"MLT-5962"},"geometry":{"type":"Polygon","coordinates":[[[14.5609,35.873],[14.5632,35.87],[14.5671,35.8456],[14.5658,35.8417],[14.5592,35.8431],[14.5536,35.8437],[14.5483,35.8458],[14.5468,35.8478],[14.5465,35.8499],[14.5477,35.8523],[14.5462,35.8555],[14.543,35.8609],[14.5456,35.8629],[14.5486,35.8632],[14.5513,35.8659],[14.5524,35.8688],[14.5609,35.873]]]}},{"type":"Feature","properties":{"name":"Żabbar","name_en":"Żabbar","name_alt":"Zabbar","region":"Malta Xlokk","region_sub":"Southern Harbour","geonunit":"Malta","adm0_a3":"MLT","iso_3166_2":"MT-64","adm1_code":"MLT-5956"},"geometry":{"type":"Polygon","coordinates":[[[14.5562,35.8793],[14.5609,35.873],[14.5524,35.8688],[14.5513,35.8659],[14.5486,35.8632],[14.5456,35.8629],[14.543,35.8609],[14.535,35.8614],[14.532,35.8641],[14.5276,35.8644],[14.5252,35.8656],[14.5264,35.8688],[14.5282,35.8712],[14.5291,35.8736],[14.5267,35.8745],[14.527,35.8777],[14.5294,35.8816],[14.5332,35.8827],[14.54,35.8827],[14.5436,35.8783],[14.5483,35.8765],[14.5562,35.8793]]]}},{"type":"Feature","properties":{"name":"Xgħajra","name_en":"Xgħajra","name_alt":"Xghajra","region":"Malta Xlokk","region_sub":"Southern Harbour","geonunit":"Malta","adm0_a3":"MLT","iso_3166_2":"MT-63","adm1_code":"MLT-5952"},"geometry":{"type":"Polygon","coordinates":[[[14.548,35.89],[14.5562,35.8793],[14.5483,35.8765],[14.5436,35.8783],[14.54,35.8827],[14.5412,35.886],[14.548,35.89]]]}},{"type":"Feature","properties":{"name":"San Lawrenz","name_en":"Saint Lawrence","name_alt":"Saint Lawrence","region":"Gozo","region_sub":"Gozo and Comino","geonunit":"Malta","adm0_a3":"MLT","iso_3166_2":"MT-50","adm1_code":"MLT-5974"},"geometry":{"type":"Polygon","coordinates":[[[14.1948,36.0294],[14.1849,36.0346],[14.188,36.0454],[14.1843,36.0563],[14.1836,36.0648],[14.1914,36.0595],[14.2021,36.0557],[14.2063,36.0571],[14.2082,36.0536],[14.2118,36.0519],[14.2101,36.0474],[14.2068,36.0448],[14.2068,36.041],[14.2002,36.0353],[14.1948,36.0294]]]}},{"type":"Feature","properties":{"name":"Kerċem","name_en":"Kerċem","name_alt":"Kercem","region":"Gozo","region_sub":"Gozo and Comino","geonunit":"Malta","adm0_a3":"MLT","iso_3166_2":"MT-22","adm1_code":"MLT-5981"},"geometry":{"type":"Polygon","coordinates":[[[14.2097,36.0231],[14.2012,36.0261],[14.1948,36.0294],[14.2002,36.0353],[14.2068,36.041],[14.2068,36.0448],[14.2101,36.0474],[14.2118,36.0519],[14.2189,36.0514],[14.222,36.0486],[14.2286,36.0476],[14.2314,36.0446],[14.2328,36.041],[14.2355,36.0398],[14.2357,36.0379],[14.2355,36.0318],[14.2305,36.033],[14.2265,36.0334],[14.2227,36.032],[14.2163,36.0285],[14.2097,36.0231]]]}},{"type":"Feature","properties":{"name":"Munxar","name_en":"Munxar","region":"Gozo","region_sub":"Gozo and Comino","geonunit":"Malta","adm0_a3":"MLT","iso_3166_2":"MT-36","adm1_code":"MLT-5984"},"geometry":{"type":"Polygon","coordinates":[[[14.233,36.0165],[14.2209,36.0192],[14.2097,36.0231],[14.2163,36.0285],[14.2227,36.032],[14.2265,36.0334],[14.2305,36.033],[14.2355,36.0318],[14.2373,36.0294],[14.2411,36.0285],[14.2404,36.0266],[14.2378,36.0228],[14.2338,36.019],[14.233,36.0165]]]}},{"type":"Feature","properties":{"name":"Sannat","name_en":"Sannat","region":"Gozo","region_sub":"Gozo and Comino","geonunit":"Malta","adm0_a3":"MLT","iso_3166_2":"MT-52","adm1_code":"MLT-5985"},"geometry":{"type":"Polygon","coordinates":[[[14.2736,36.016],[14.26,36.0135],[14.2415,36.0146],[14.233,36.0165],[14.2338,36.019],[14.2378,36.0228],[14.2404,36.0266],[14.244,36.0259],[14.2515,36.0259],[14.256,36.0249],[14.2594,36.0223],[14.2641,36.0211],[14.2686,36.019],[14.2717,36.0192],[14.2736,36.016]]]}},{"type":"Feature","properties":{"name":"Għajnsielem","name_en":"Għajnsielem","name_alt":"Ghajnsielem","region":"Gozo","region_sub":"Gozo and Comino","geonunit":"Malta","adm0_a3":"MLT","iso_3166_2":"MT-13","adm1_code":"MLT-5987"},"geometry":{"type":"Polygon","coordinates":[[[14.3001,36.025],[14.2776,36.0167],[14.2736,36.016],[14.2717,36.0192],[14.2721,36.0204],[14.2762,36.0237],[14.2766,36.0282],[14.2788,36.0301],[14.2807,36.0334],[14.2849,36.0311],[14.2892,36.0304],[14.297,36.0304],[14.2993,36.028],[14.3001,36.025]]]}},{"type":"Feature","properties":{"name":"Qala","name_en":"Qala","region":"Gozo","region_sub":"Gozo and Comino","geonunit":"Malta","adm0_a3":"MLT","iso_3166_2":"MT-42","adm1_code":"MLT-5980"},"geometry":{"type":"Polygon","coordinates":[[[14.3204,36.0462],[14.3342,36.0344],[14.322,36.0272],[14.3045,36.0266],[14.3001,36.025],[14.2993,36.028],[14.297,36.0304],[14.3053,36.0313],[14.3076,36.0339],[14.3079,36.0387],[14.3086,36.041],[14.3121,36.0417],[14.3157,36.0436],[14.3204,36.0462]]]}},{"type":"Feature","properties":{"name":"Nadur","name_en":"Nadur","region":"Gozo","region_sub":"Gozo and Comino","geonunit":"Malta","adm0_a3":"MLT","iso_3166_2":"MT-37","adm1_code":"MLT-5979"},"geometry":{"type":"Polygon","coordinates":[[[14.2891,36.0645],[14.3148,36.0511],[14.3204,36.0462],[14.3157,36.0436],[14.3121,36.0417],[14.3086,36.041],[14.3079,36.0387],[14.3076,36.0339],[14.3053,36.0313],[14.297,36.0304],[14.2892,36.0304],[14.2849,36.0311],[14.2807,36.0334],[14.2809,36.0379],[14.2823,36.0408],[14.283,36.0453],[14.2861,36.0465],[14.2861,36.0576],[14.2891,36.0645]]]}},{"type":"Feature","properties":{"name":"Xagħra","name_en":"Xagħra","name_alt":"Xaghra","region":"Gozo","region_sub":"Gozo and Comino","geonunit":"Malta","adm0_a3":"MLT","iso_3166_2":"MT-61","adm1_code":"MLT-5978"},"geometry":{"type":"Polygon","coordinates":[[[14.272,36.071],[14.2826,36.0679],[14.2891,36.0645],[14.2861,36.0576],[14.2861,36.0465],[14.283,36.0453],[14.2823,36.0408],[14.2809,36.0379],[14.2807,36.0334],[14.2752,36.0368],[14.2714,36.0382],[14.2669,36.0375],[14.2612,36.0365],[14.2551,36.0375],[14.2556,36.0401],[14.2534,36.0424],[14.2506,36.0458],[14.2532,36.046],[14.2544,36.0479],[14.253,36.0512],[14.2534,36.0545],[14.257,36.0578],[14.2617,36.0597],[14.2676,36.06],[14.2686,36.0618],[14.2683,36.0652],[14.2679,36.0678],[14.272,36.071]]]}},{"type":"Feature","properties":{"name":"Żebbuġ","name_en":"Żebbuġ","region":"Gozo","region_sub":"Gozo and Comino","geonunit":"Malta","adm0_a3":"MLT","iso_3166_2":"MT-65","adm1_code":"MLT-5977"},"geometry":{"type":"Polygon","coordinates":[[[14.2335,36.0728],[14.2566,36.0756],[14.272,36.071],[14.2679,36.0678],[14.2683,36.0652],[14.2686,36.0618],[14.2676,36.06],[14.2617,36.0597],[14.257,36.0578],[14.2534,36.0545],[14.253,36.0512],[14.2544,36.0479],[14.2532,36.046],[14.2506,36.0458],[14.2452,36.0458],[14.2395,36.0493],[14.239,36.055],[14.2366,36.0576],[14.2333,36.0566],[14.2312,36.0573],[14.2302,36.0626],[14.2305,36.0687],[14.2335,36.0728]]]}},{"type":"Feature","properties":{"name":"Għasri","name_en":"Għasri","name_alt":"Ghasri","region":"Gozo","region_sub":"Gozo and Comino","geonunit":"Malta","adm0_a3":"MLT","iso_3166_2":"MT-16","adm1_code":"MLT-5976"},"geometry":{"type":"Polygon","coordinates":[[[14.2129,36.0702],[14.2335,36.0728],[14.2305,36.0687],[14.2302,36.0626],[14.2312,36.0573],[14.2333,36.0566],[14.2366,36.0576],[14.239,36.055],[14.2395,36.0493],[14.2345,36.0495],[14.23,36.0491],[14.2286,36.0476],[14.222,36.0486],[14.2189,36.0514],[14.2182,36.0581],[14.216,36.0628],[14.2125,36.0663],[14.2129,36.0702]]]}},{"type":"Feature","properties":{"name":"Għarb","name_en":"Għarb","name_alt":"Gharb","region":"Gozo","region_sub":"Gozo and Comino","geonunit":"Malta","adm0_a3":"MLT","iso_3166_2":"MT-14","adm1_code":"MLT-5975"},"geometry":{"type":"Polygon","coordinates":[[[14.1836,36.0648],[14.1955,36.0681],[14.2129,36.0702],[14.2125,36.0663],[14.216,36.0628],[14.2182,36.0581],[14.2189,36.0514],[14.2118,36.0519],[14.2082,36.0536],[14.2063,36.0571],[14.2021,36.0557],[14.1914,36.0595],[14.1836,36.0648]]]}},{"type":"Feature","properties":{"name":"Victoria","name_en":"Victoria","name_alt":"Rabat|Ir-Rabat Għawdex|Città Victoria","region":"Gozo","region_sub":"Gozo and Comino","geonunit":"Malta","adm0_a3":"MLT","iso_3166_2":"MT-45","adm1_code":"MLT-5982"},"geometry":{"type":"Polygon","coordinates":[[[14.2357,36.0379],[14.2355,36.0398],[14.2328,36.041],[14.2314,36.0446],[14.2286,36.0476],[14.23,36.0491],[14.2345,36.0495],[14.2395,36.0493],[14.2452,36.0458],[14.2506,36.0458],[14.2534,36.0424],[14.2556,36.0401],[14.2551,36.0375],[14.2541,36.0325],[14.2506,36.0323],[14.2473,36.0325],[14.2447,36.0306],[14.2444,36.0339],[14.2409,36.0356],[14.239,36.0379],[14.2357,36.0379]]]}},{"type":"Feature","properties":{"name":"Fontana, Gozo","name_en":"Fontana","region":"Gozo","region_sub":"Gozo and Comino","geonunit":"Malta","adm0_a3":"MLT","iso_3166_2":"MT-10","adm1_code":"MLT-5983"},"geometry":{"type":"Polygon","coordinates":[[[14.2355,36.0318],[14.2357,36.0379],[14.239,36.0379],[14.2409,36.0356],[14.2444,36.0339],[14.2447,36.0306],[14.2411,36.0285],[14.2373,36.0294],[14.2355,36.0318]]]}},{"type":"Feature","properties":{"name":"Xewkija","name_en":"Xewkija","region":"Gozo","region_sub":"Gozo and Comino","geonunit":"Malta","adm0_a3":"MLT","iso_3166_2":"MT-62","adm1_code":"MLT-5986"},"geometry":{"type":"Polygon","coordinates":[[[14.2404,36.0266],[14.2411,36.0285],[14.2447,36.0306],[14.2473,36.0325],[14.2506,36.0323],[14.2541,36.0325],[14.2551,36.0375],[14.2612,36.0365],[14.2669,36.0375],[14.2714,36.0382],[14.2752,36.0368],[14.2807,36.0334],[14.2788,36.0301],[14.2766,36.0282],[14.2762,36.0237],[14.2721,36.0204],[14.2717,36.0192],[14.2686,36.019],[14.2641,36.0211],[14.2594,36.0223],[14.256,36.0249],[14.2515,36.0259],[14.244,36.0259],[14.2404,36.0266]]]}},{"type":"Feature","properties":{"name":"Mosta","name_en":"Mosta","region":"Malta Majjistral","region_sub":"Northern","geonunit":"Malta","adm0_a3":"MLT","iso_3166_2":"MT-32","adm1_code":"MLT-5927"},"geometry":{"type":"Polygon","coordinates":[[[14.4042,35.9052],[14.4033,35.9082],[14.4057,35.91],[14.4095,35.9117],[14.4116,35.9132],[14.4107,35.9153],[14.4072,35.9165],[14.4036,35.9183],[14.4024,35.9212],[14.3995,35.9221],[14.3956,35.9218],[14.3945,35.923],[14.3965,35.9245],[14.4045,35.9256],[14.4098,35.9248],[14.4137,35.9224],[14.4163,35.9206],[14.4175,35.9174],[14.4202,35.9156],[14.4229,35.9174],[14.4258,35.9203],[14.43,35.9197],[14.432,35.9171],[14.4329,35.9144],[14.4335,35.9114],[14.4338,35.9085],[14.435,35.9058],[14.4332,35.904],[14.4332,35.9008],[14.4353,35.8952],[14.4317,35.8955],[14.4282,35.8975],[14.4226,35.8996],[14.4163,35.899],[14.4131,35.8975],[14.4098,35.9002],[14.4072,35.9023],[14.4042,35.9052]]]}},{"type":"Feature","properties":{"name":"Lija","name_en":"Lija","region":"Malta Majjistral","region_sub":"Western","geonunit":"Malta","adm0_a3":"MLT","iso_3166_2":"MT-24","adm1_code":"MLT-5929"},"geometry":{"type":"Polygon","coordinates":[[[14.4353,35.8952],[14.4332,35.9008],[14.4332,35.904],[14.435,35.9058],[14.4406,35.9035],[14.4465,35.9043],[14.4486,35.9011],[14.4459,35.8949],[14.4397,35.8946],[14.4353,35.8952]]]}},{"type":"Feature","properties":{"name":"Attard","name_en":"Attard","region":"Malta Majjistral","region_sub":"Western","geonunit":"Malta","adm0_a3":"MLT","iso_3166_2":"MT-01","adm1_code":"MLT-5920"},"geometry":{"type":"Polygon","coordinates":[[[14.4226,35.8996],[14.4282,35.8975],[14.4317,35.8955],[14.4353,35.8952],[14.4397,35.8946],[14.4459,35.8949],[14.4486,35.8916],[14.4521,35.8898],[14.4578,35.889],[14.4569,35.8857],[14.4545,35.883],[14.4433,35.8825],[14.4371,35.8822],[14.4338,35.8795],[14.4288,35.8786],[14.4235,35.8792],[14.4184,35.8804],[14.4128,35.8795],[14.411,35.8842],[14.4113,35.8875],[14.4116,35.8913],[14.4125,35.894],[14.4131,35.8975],[14.4163,35.899],[14.4226,35.8996]]]}},{"type":"Feature","properties":{"name":"Mtarfa","name_en":"Mtarfa","name_alt":"Imtarfa","region":"Malta Majjistral","region_sub":"Western","geonunit":"Malta","adm0_a3":"MLT","iso_3166_2":"MT-35","adm1_code":"MLT-5922"},"geometry":{"type":"Polygon","coordinates":[[[14.4024,35.8816],[14.3962,35.8833],[14.3956,35.8875],[14.3986,35.8901],[14.4036,35.8904],[14.4081,35.8904],[14.4116,35.8913],[14.4113,35.8875],[14.411,35.8842],[14.4075,35.8842],[14.4039,35.8833],[14.4024,35.8816]]]}},{"type":"Feature","properties":{"name":"Mdina","name_en":"Mdina","region":"Malta Majjistral","region_sub":"Western","geonunit":"Malta","adm0_a3":"MLT","iso_3166_2":"MT-29","adm1_code":"MLT-5921"},"geometry":{"type":"Polygon","coordinates":[[[14.4024,35.8816],[14.4039,35.8833],[14.4075,35.8842],[14.411,35.8842],[14.4128,35.8795],[14.4098,35.8798],[14.4048,35.8798],[14.4024,35.8816]]]}},{"type":"Feature","properties":{"name":"Żebbuġ","name_en":"Żebbuġ Gozo","region":"Malta Majjistral","region_sub":"Western","geonunit":"Malta","adm0_a3":"MLT","iso_3166_2":"MT-66","adm1_code":"MLT-5946"},"geometry":{"type":"Polygon","coordinates":[[[14.4163,35.8638],[14.4143,35.8742],[14.4125,35.8753],[14.4128,35.8795],[14.4184,35.8804],[14.4235,35.8792],[14.4288,35.8786],[14.4338,35.8795],[14.4371,35.8822],[14.4433,35.8825],[14.4545,35.883],[14.4533,35.8804],[14.4516,35.878],[14.4524,35.8739],[14.4548,35.8718],[14.4598,35.8712],[14.4628,35.8691],[14.4628,35.8659],[14.4634,35.8626],[14.4607,35.8614],[14.459,35.8623],[14.4557,35.8647],[14.4516,35.8653],[14.4456,35.8644],[14.4442,35.862],[14.4412,35.8597],[14.435,35.8579],[14.4288,35.8603],[14.4229,35.8623],[14.4199,35.8641],[14.4163,35.8638]]]}},{"type":"Feature","properties":{"name":"Qormi","name_en":"Qormi","region":"Malta Majjistral","region_sub":"Northern Harbour","geonunit":"Malta","adm0_a3":"MLT","iso_3166_2":"MT-43","adm1_code":"MLT-5945"},"geometry":{"type":"Polygon","coordinates":[[[14.4634,35.8626],[14.4628,35.8659],[14.4628,35.8691],[14.4598,35.8712],[14.4548,35.8718],[14.4524,35.8739],[14.4516,35.878],[14.4533,35.8804],[14.4545,35.883],[14.4569,35.8857],[14.4578,35.889],[14.4637,35.8848],[14.4702,35.8842],[14.4737,35.8827],[14.4791,35.8819],[14.4841,35.8759],[14.4808,35.8745],[14.4803,35.8721],[14.477,35.8691],[14.4699,35.8603],[14.4666,35.8603],[14.4634,35.8626]]]}},{"type":"Feature","properties":{"name":"Swieqi","name_en":"Swieqi","region":"Malta Majjistral","region_sub":"Northern Harbour","geonunit":"Malta","adm0_a3":"MLT","iso_3166_2":"MT-57","adm1_code":"MLT-5933"},"geometry":{"type":"Polygon","coordinates":[[[14.4551,35.9289],[14.4625,35.9292],[14.4672,35.9274],[14.4708,35.9248],[14.472,35.9203],[14.4758,35.9194],[14.4841,35.92],[14.4859,35.9183],[14.4856,35.9147],[14.482,35.9123],[14.48,35.9141],[14.4773,35.912],[14.4723,35.9106],[14.4664,35.9109],[14.4637,35.9117],[14.4628,35.9165],[14.4604,35.9197],[14.4595,35.9245],[14.4551,35.9259],[14.4551,35.9289]]]}},{"type":"Feature","properties":{"name":"Għargħur","name_en":"Għargħur","name_alt":"Gharghur","region":"Malta Majjistral","region_sub":"Northern","geonunit":"Malta","adm0_a3":"MLT","iso_3166_2":"MT-15","adm1_code":"MLT-5932"},"geometry":{"type":"Polygon","coordinates":[[[14.4513,35.9129],[14.4474,35.9162],[14.4471,35.92],[14.4483,35.9256],[14.4507,35.9274],[14.4551,35.9289],[14.4551,35.9259],[14.4595,35.9245],[14.4604,35.9197],[14.4628,35.9165],[14.4637,35.9117],[14.4622,35.9094],[14.4584,35.9117],[14.4551,35.9126],[14.4513,35.9129]]]}},{"type":"Feature","properties":{"name":"San Ġwann","name_en":"San Ġwann","region":"Malta Majjistral","region_sub":"Northern Harbour","geonunit":"Malta","adm0_a3":"MLT","iso_3166_2":"MT-49","adm1_code":"MLT-5937"},"geometry":{"type":"Polygon","coordinates":[[[14.48,35.9141],[14.482,35.9123],[14.4826,35.909],[14.4856,35.9074],[14.4886,35.9047],[14.4859,35.9004],[14.4759,35.8999],[14.4722,35.8989],[14.4625,35.9011],[14.4622,35.9094],[14.4637,35.9117],[14.4664,35.9109],[14.4723,35.9106],[14.4773,35.912],[14.48,35.9141]]]}},{"type":"Feature","properties":{"name":"Iklin","name_en":"Iklin","region":"Malta Majjistral","region_sub":"Western","geonunit":"Malta","adm0_a3":"MLT","iso_3166_2":"MT-19","adm1_code":"MLT-5931"},"geometry":{"type":"Polygon","coordinates":[[[14.4513,35.9129],[14.4551,35.9126],[14.4584,35.9117],[14.4622,35.9094],[14.4625,35.9011],[14.4587,35.8999],[14.4545,35.899],[14.4486,35.9011],[14.4465,35.9043],[14.4501,35.9058],[14.4483,35.9094],[14.4513,35.9129]]]}},{"type":"Feature","properties":{"name":"Birkirkara","name_en":"Birkirkara","region":"Malta Majjistral","region_sub":"Northern Harbour","geonunit":"Malta","adm0_a3":"MLT","iso_3166_2":"MT-04","adm1_code":"MLT-5939"},"geometry":{"type":"Polygon","coordinates":[[[14.4545,35.899],[14.4587,35.8999],[14.4625,35.9011],[14.4722,35.8989],[14.4758,35.8965],[14.4768,35.8941],[14.4741,35.8917],[14.4722,35.8908],[14.4716,35.8883],[14.4702,35.8842],[14.4637,35.8848],[14.4578,35.889],[14.4584,35.8925],[14.4569,35.8961],[14.4545,35.899]]]}},{"type":"Feature","properties":{"name":"Balzan","name_en":"Balzan","region":"Malta Majjistral","region_sub":"Western","geonunit":"Malta","adm0_a3":"MLT","iso_3166_2":"MT-02","adm1_code":"MLT-5930"},"geometry":{"type":"Polygon","coordinates":[[[14.4486,35.9011],[14.4545,35.899],[14.4569,35.8961],[14.4584,35.8925],[14.4578,35.889],[14.4521,35.8898],[14.4486,35.8916],[14.4459,35.8949],[14.4486,35.9011]]]}},{"type":"Feature","properties":{"name":"Santa Venera","name_en":"Santa Venera","region":"Malta Majjistral","region_sub":"Northern Harbour","geonunit":"Malta","adm0_a3":"MLT","iso_3166_2":"MT-54","adm1_code":"MLT-5943"},"geometry":{"type":"Polygon","coordinates":[[[14.4791,35.8819],[14.4737,35.8827],[14.4702,35.8842],[14.4716,35.8883],[14.4722,35.8908],[14.4741,35.8917],[14.4768,35.8911],[14.4823,35.8898],[14.4866,35.8864],[14.4807,35.8844],[14.4791,35.8819]]]}},{"type":"Feature","properties":{"name":"Ħamrun","name_en":"Ħamrun","name_alt":"Hamrun","region":"Malta Majjistral","region_sub":"Northern Harbour","geonunit":"Malta","adm0_a3":"MLT","iso_3166_2":"MT-18","adm1_code":"MLT-5944"},"geometry":{"type":"Polygon","coordinates":[[[14.4841,35.8759],[14.4791,35.8819],[14.4807,35.8844],[14.4866,35.8864],[14.4909,35.8859],[14.4962,35.8883],[14.4981,35.8861],[14.4966,35.8844],[14.4921,35.8822],[14.49,35.8756],[14.4841,35.8759]]]}},{"type":"Feature","properties":{"name":"Marsa","name_en":"Marsa","region":"Malta Xlokk","region_sub":"Southern Harbour","geonunit":"Malta","adm0_a3":"MLT","iso_3166_2":"MT-26","adm1_code":"MLT-5957"},"geometry":{"type":"Polygon","coordinates":[[[14.4803,35.8721],[14.4808,35.8745],[14.4841,35.8759],[14.49,35.8756],[14.4921,35.8822],[14.4966,35.8844],[14.4986,35.8833],[14.5007,35.8798],[14.5004,35.8736],[14.4977,35.8674],[14.4933,35.8629],[14.4894,35.8629],[14.4853,35.8656],[14.482,35.8662],[14.482,35.8688],[14.4803,35.8721]]]}},{"type":"Feature","properties":{"name":"Luqa","name_en":"Luqa","region":"Malta Xlokk","region_sub":"Southern Harbour","geonunit":"Malta","adm0_a3":"MLT","iso_3166_2":"MT-25","adm1_code":"MLT-5964"},"geometry":{"type":"Polygon","coordinates":[[[14.4699,35.8603],[14.477,35.8691],[14.4803,35.8721],[14.482,35.8688],[14.482,35.8662],[14.4853,35.8656],[14.4894,35.8629],[14.4933,35.8629],[14.4948,35.8585],[14.4948,35.8543],[14.4945,35.8508],[14.4962,35.8469],[14.4962,35.8449],[14.4965,35.841],[14.4989,35.8393],[14.5033,35.8366],[14.5066,35.8333],[14.509,35.8298],[14.5042,35.8292],[14.4986,35.8336],[14.495,35.8375],[14.4903,35.8396],[14.4894,35.8431],[14.4874,35.844],[14.4844,35.8472],[14.4817,35.8484],[14.4782,35.8464],[14.4729,35.8475],[14.469,35.8493],[14.4646,35.8467],[14.461,35.8455],[14.4572,35.8472],[14.4581,35.8493],[14.4622,35.8499],[14.4658,35.8532],[14.4705,35.8564],[14.4699,35.8603]]]}},{"type":"Feature","properties":{"name":"Mqabba","name_en":"Mqabba","region":"Malta Xlokk","region_sub":"South Eastern","geonunit":"Malta","adm0_a3":"MLT","iso_3166_2":"MT-33","adm1_code":"MLT-5969"},"geometry":{"type":"Polygon","coordinates":[[[14.4507,35.8393],[14.453,35.8431],[14.4542,35.8461],[14.4572,35.8472],[14.461,35.8455],[14.4646,35.8467],[14.469,35.8493],[14.4729,35.8475],[14.4782,35.8464],[14.4797,35.8437],[14.4782,35.8419],[14.4764,35.8384],[14.4726,35.8381],[14.4669,35.8378],[14.461,35.8369],[14.4563,35.8384],[14.4507,35.8393]]]}},{"type":"Feature","properties":{"name":"Kirkop","name_en":"Kirkop","region":"Malta Xlokk","region_sub":"South Eastern","geonunit":"Malta","adm0_a3":"MLT","iso_3166_2":"MT-23","adm1_code":"MLT-5970"},"geometry":{"type":"Polygon","coordinates":[[[14.4835,35.8342],[14.4808,35.8369],[14.4764,35.8384],[14.4782,35.8419],[14.4797,35.8437],[14.4782,35.8464],[14.4817,35.8484],[14.4844,35.8472],[14.4874,35.844],[14.4894,35.8431],[14.4903,35.8396],[14.4835,35.8342]]]}},{"type":"Feature","properties":{"name":"Safi","name_en":"Safi","region":"Malta Xlokk","region_sub":"South Eastern","geonunit":"Malta","adm0_a3":"MLT","iso_3166_2":"MT-47","adm1_code":"MLT-5971"},"geometry":{"type":"Polygon","coordinates":[[[14.4862,35.8251],[14.4829,35.8259],[14.4797,35.8286],[14.4794,35.8307],[14.4835,35.8342],[14.4903,35.8396],[14.495,35.8375],[14.4986,35.8336],[14.5042,35.8292],[14.5007,35.8265],[14.498,35.8274],[14.4945,35.8289],[14.4906,35.8268],[14.4862,35.8251]]]}},{"type":"Feature","properties":{"name":"Għaxaq","name_en":"Għaxaq","name_alt":"Ghaxaq","region":"Malta Xlokk","region_sub":"South Eastern","geonunit":"Malta","adm0_a3":"MLT","iso_3166_2":"MT-17","adm1_code":"MLT-5967"},"geometry":{"type":"Polygon","coordinates":[[[14.5252,35.8398],[14.5237,35.8369],[14.519,35.836],[14.5163,35.8351],[14.5155,35.8325],[14.5131,35.8301],[14.509,35.8298],[14.5066,35.8333],[14.5033,35.8366],[14.5057,35.8384],[14.5057,35.8401],[14.506,35.8434],[14.5072,35.8458],[14.5092,35.8469],[14.5098,35.8502],[14.5104,35.8517],[14.5098,35.8549],[14.511,35.8567],[14.5158,35.8555],[14.5199,35.8511],[14.5246,35.8446],[14.5252,35.8398]]]}},{"type":"Feature","properties":{"name":"Żejtun","name_en":"Żejtun","name_alt":"Zejtun","region":"Malta Xlokk","region_sub":"South Eastern","geonunit":"Malta","adm0_a3":"MLT","iso_3166_2":"MT-67","adm1_code":"MLT-5961"},"geometry":{"type":"Polygon","coordinates":[[[14.545,35.8428],[14.5391,35.8455],[14.5332,35.8461],[14.5308,35.8443],[14.5246,35.8446],[14.5199,35.8511],[14.5158,35.8555],[14.511,35.8567],[14.5125,35.8582],[14.5163,35.8603],[14.5184,35.8614],[14.5193,35.8641],[14.5217,35.8647],[14.5252,35.8656],[14.5276,35.8644],[14.532,35.8641],[14.535,35.8614],[14.543,35.8609],[14.5462,35.8555],[14.5477,35.8523],[14.5465,35.8499],[14.5468,35.8478],[14.5483,35.8458],[14.545,35.8428]]]}},{"type":"Feature","properties":{"name":"Fgura","name_en":"Fgura","region":"Malta Xlokk","region_sub":"Southern Harbour","geonunit":"Malta","adm0_a3":"MLT","iso_3166_2":"MT-08","adm1_code":"MLT-5959"},"geometry":{"type":"Polygon","coordinates":[[[14.5252,35.8656],[14.5217,35.8647],[14.5193,35.8641],[14.5184,35.8614],[14.5163,35.8603],[14.5149,35.8632],[14.5158,35.8656],[14.5131,35.868],[14.5084,35.8691],[14.5137,35.8739],[14.5172,35.8739],[14.5229,35.8742],[14.5267,35.8745],[14.5291,35.8736],[14.5282,35.8712],[14.5264,35.8688],[14.5252,35.8656]]]}},{"type":"Feature","properties":{"name":"Tarxien","name_en":"Tarxien","region":"Malta Xlokk","region_sub":"Southern Harbour","geonunit":"Malta","adm0_a3":"MLT","iso_3166_2":"MT-59","adm1_code":"MLT-5960"},"geometry":{"type":"Polygon","coordinates":[[[14.5163,35.8603],[14.5125,35.8582],[14.511,35.8567],[14.5098,35.8549],[14.5027,35.8561],[14.498,35.8567],[14.4948,35.8585],[14.5001,35.8614],[14.5033,35.8629],[14.5048,35.8662],[14.5084,35.8691],[14.5131,35.868],[14.5158,35.8656],[14.5149,35.8632],[14.5163,35.8603]]]}},{"type":"Feature","properties":{"name":"Santa Luċija","name_en":"Santa Luċija","name_alt":"Santa Lucija","region":"Malta Xlokk","region_sub":"Southern Harbour","geonunit":"Malta","adm0_a3":"MLT","iso_3166_2":"MT-53","adm1_code":"MLT-5965"},"geometry":{"type":"Polygon","coordinates":[[[14.5098,35.8549],[14.5104,35.8517],[14.5098,35.8502],[14.5027,35.8505],[14.4945,35.8508],[14.4948,35.8543],[14.4948,35.8585],[14.498,35.8567],[14.5027,35.8561],[14.5098,35.8549]]]}},{"type":"Feature","properties":{"name":"Gudja","name_en":"Gudja","region":"Malta Xlokk","region_sub":"South Eastern","geonunit":"Malta","adm0_a3":"MLT","iso_3166_2":"MT-11","adm1_code":"MLT-5966"},"geometry":{"type":"Polygon","coordinates":[[[14.5098,35.8502],[14.5092,35.8469],[14.5072,35.8458],[14.506,35.8434],[14.5057,35.8401],[14.5057,35.8384],[14.5033,35.8366],[14.4989,35.8393],[14.4965,35.841],[14.4962,35.8449],[14.4962,35.8469],[14.4945,35.8508],[14.5027,35.8505],[14.5098,35.8502]]]}},{"type":"Feature","properties":{"name":"Paola","name_en":"Paola","region":"Malta Xlokk","region_sub":"Southern Harbour","geonunit":"Malta","adm0_a3":"MLT","iso_3166_2":"MT-39","adm1_code":"MLT-5958"},"geometry":{"type":"Polygon","coordinates":[[[14.5084,35.8691],[14.5048,35.8662],[14.5033,35.8629],[14.5001,35.8614],[14.4948,35.8585],[14.4933,35.8629],[14.4977,35.8674],[14.5004,35.8736],[14.5007,35.8798],[14.5045,35.8825],[14.5084,35.8854],[14.5137,35.8804],[14.5107,35.8759],[14.5137,35.8739],[14.5084,35.8691]]]}},{"type":"Feature","properties":{"name":"Gżira","name_en":"Gżira","name_alt":"Gzira","region":"Malta Majjistral","region_sub":"Northern Harbour","geonunit":"Malta","adm0_a3":"MLT","iso_3166_2":"MT-12","adm1_code":"MLT-5938"},"geometry":{"type":"Polygon","coordinates":[[[14.5072,35.8987],[14.5016,35.8952],[14.4978,35.8972],[14.4892,35.8974],[14.4859,35.9004],[14.4886,35.9047],[14.4929,35.9066],[14.4974,35.9038],[14.5075,35.902],[14.5072,35.8987]]]}},{"type":"Feature","properties":{"name":"Floriana","name_en":"Floriana","region":"Malta Xlokk","region_sub":"Southern Harbour","geonunit":"Malta","adm0_a3":"MLT","iso_3166_2":"MT-09","adm1_code":"MLT-5954"},"geometry":{"type":"Polygon","coordinates":[[[14.498,35.8925],[14.5016,35.8952],[14.5107,35.889],[14.5084,35.8854],[14.5045,35.8825],[14.5007,35.8798],[14.4986,35.8833],[14.4966,35.8844],[14.4981,35.8861],[14.4962,35.8883],[14.498,35.8925]]]}},{"type":"Feature","properties":{"name":"Ta' Xbiex","name_en":"Ta' Xbiex","region":"Malta Majjistral","region_sub":"Northern Harbour","geonunit":"Malta","adm0_a3":"MLT","iso_3166_2":"MT-58","adm1_code":"MLT-5941"},"geometry":{"type":"Polygon","coordinates":[[[14.5016,35.8952],[14.498,35.8925],[14.4933,35.8916],[14.4894,35.8919],[14.4892,35.8974],[14.4978,35.8972],[14.5016,35.8952]]]}},{"type":"Feature","properties":{"name":"Isla","name_en":"Senglea","name_alt":"Isla|Città Invicta","region":"Malta Xlokk","region_sub":"Southern Harbour","geonunit":"Malta","adm0_a3":"MLT","iso_3166_2":"MT-20","adm1_code":"MLT-5953"},"geometry":{"type":"Polygon","coordinates":[[[14.5107,35.889],[14.5154,35.8911],[14.5213,35.8871],[14.5137,35.8804],[14.5084,35.8854],[14.5107,35.889]]]}},{"type":"Feature","properties":{"name":"Cospicua","name_en":"Cospicua","name_alt":"Bormla","region":"Malta Xlokk","region_sub":"Southern Harbour","geonunit":"Malta","adm0_a3":"MLT","iso_3166_2":"MT-06","adm1_code":"MLT-5955"},"geometry":{"type":"Polygon","coordinates":[[[14.5294,35.8816],[14.527,35.8777],[14.5267,35.8745],[14.5229,35.8742],[14.5172,35.8739],[14.5137,35.8739],[14.5107,35.8759],[14.5137,35.8804],[14.5213,35.8871],[14.5294,35.8816]]]}},{"type":"Feature","properties":{"name":"Pietà","name_en":"Pietà","region":"Malta Majjistral","region_sub":"Northern Harbour","geonunit":"Malta","adm0_a3":"MLT","iso_3166_2":"MT-41","adm1_code":"MLT-5942"},"geometry":{"type":"Polygon","coordinates":[[[14.498,35.8925],[14.4962,35.8883],[14.4909,35.8859],[14.4866,35.8864],[14.4892,35.8889],[14.4894,35.8919],[14.4933,35.8916],[14.498,35.8925]]]}},{"type":"Feature","properties":{"name":"Msida","name_en":"Msida","region":"Malta Majjistral","region_sub":"Northern Harbour","geonunit":"Malta","adm0_a3":"MLT","iso_3166_2":"MT-34","adm1_code":"MLT-5940"},"geometry":{"type":"Polygon","coordinates":[[[14.4866,35.8864],[14.4823,35.8898],[14.4768,35.8911],[14.4741,35.8917],[14.4768,35.8941],[14.4758,35.8965],[14.4722,35.8989],[14.4759,35.8999],[14.4859,35.9004],[14.4892,35.8974],[14.4894,35.8919],[14.4892,35.8889],[14.4866,35.8864]]]}},{"type":"Feature","properties":{"name":"Birgu","name_en":"Birgu","region":"Malta Xlokk","region_sub":"Southern Harbour","geonunit":"Malta","adm0_a3":"MLT","iso_3166_2":"MT-03","adm1_code":"MLT-5951"},"geometry":{"type":"Polygon","coordinates":[[[14.5213,35.8871],[14.5154,35.8911],[14.5195,35.8943],[14.5248,35.8904],[14.529,35.889],[14.5294,35.8816],[14.5213,35.8871]]]}}]}