{"type":"FeatureCollection","features":[{"type":"Feature","properties":{"name":"Anetan","name_en":"Anetan","geonunit":"Nauru","adm0_a3":"NRU","iso_3166_2":"NR-03","adm1_code":"NRU-4978"},"geometry":{"type":"Polygon","coordinates":[[[166.9312,-0.4933],[166.9388,-0.4904],[166.939,-0.5042],[166.9312,-0.4933]]]}},{"type":"Feature","properties":{"name":"Ewa","name_en":"Ewa","geonunit":"Nauru","adm0_a3":"NRU","iso_3166_2":"NR-09","adm1_code":"NRU-4977"},"geometry":{"type":"Polygon","coordinates":[[[166.9251,-0.4957],[166.9312,-0.4933],[166.939,-0.5042],[166.938,-0.5105],[166.9251,-0.4957]]]}},{"type":"Feature","properties":{"name":"Baiti","name_en":"Baiti","geonunit":"Nauru","adm0_a3":"NRU","iso_3166_2":"NR-05","adm1_code":"NRU-4976"},"geometry":{"type":"Polygon","coordinates":[[[166.9181,-0.4984],[166.9251,-0.4957],[166.938,-0.5105],[166.9376,-0.5137],[166.9372,-0.5165],[166.9181,-0.4984]]]}},{"type":"Feature","properties":{"name":"Uaboe","name_en":"Uaboe","geonunit":"Nauru","adm0_a3":"NRU","iso_3166_2":"NR-13","adm1_code":"NRU-4975"},"geometry":{"type":"Polygon","coordinates":[[[166.9134,-0.5002],[166.9181,-0.4984],[166.9372,-0.5165],[166.9368,-0.5202],[166.9134,-0.5002]]]}},{"type":"Feature","properties":{"name":"Nibok","name_en":"Nibok","geonunit":"Nauru","adm0_a3":"NRU","iso_3166_2":"NR-12","adm1_code":"NRU-4974"},"geometry":{"type":"Polygon","coordinates":[[[166.9103,-0.5121],[166.9134,-0.5002],[166.9368,-0.5202],[166.9365,-0.5224],[166.9361,-0.5252],[166.9285,-0.5228],[166.9204,-0.5207],[166.9103,-0.5121]]]}},{"type":"Feature","properties":{"name":"Denigomodu","name_en":"Denigomodu","geonunit":"Nauru","adm0_a3":"NRU","iso_3166_2":"NR-08","adm1_code":"NRU-4973"},"geometry":{"type":"Polygon","coordinates":[[[166.907,-0.5248],[166.9103,-0.5121],[166.9204,-0.5207],[166.9169,-0.5242],[166.907,-0.5248]]]}},{"type":"Feature","properties":{"name":"Aiwo","name_en":"Aiwo","geonunit":"Nauru","adm0_a3":"NRU","iso_3166_2":"NR-01","adm1_code":"NRU-4972"},"geometry":{"type":"Polygon","coordinates":[[[166.912,-0.537],[166.907,-0.5248],[166.9169,-0.5242],[166.9162,-0.5291],[166.9179,-0.5351],[166.912,-0.537]]]}},{"type":"Feature","properties":{"name":"Boe","name_en":"Boe","geonunit":"Nauru","adm0_a3":"NRU","iso_3166_2":"NR-06","adm1_code":"NRU-4971"},"geometry":{"type":"Polygon","coordinates":[[[166.9164,-0.5475],[166.912,-0.537],[166.9179,-0.5351],[166.9201,-0.5388],[166.9183,-0.5403],[166.9164,-0.5475]]]}},{"type":"Feature","properties":{"name":"Yaren","name_en":"Yaren","geonunit":"Nauru","adm0_a3":"NRU","iso_3166_2":"NR-14","adm1_code":"NRU-4983"},"geometry":{"type":"Polygon","coordinates":[[[166.9326,-0.5507],[166.9164,-0.5475],[166.9183,-0.5403],[166.9201,-0.5388],[166.9253,-0.5344],[166.9326,-0.5507]]]}},{"type":"Feature","properties":{"name":"Meneng","name_en":"Meneng","geonunit":"Nauru","adm0_a3":"NRU","iso_3166_2":"NR-11","adm1_code":"NRU-4982"},"geometry":{"type":"Polygon","coordinates":[[[166.9532,-0.5334],[166.9513,-0.5392],[166.9388,-0.5519],[166.9326,-0.5507],[166.9253,-0.5344],[166.9355,-0.5298],[166.9453,-0.5323],[166.9532,-0.5334]]]}},{"type":"Feature","properties":{"name":"Anibare","name_en":"Anibare","geonunit":"Nauru","adm0_a3":"NRU","iso_3166_2":"NR-04","adm1_code":"NRU-4981"},"geometry":{"type":"Polygon","coordinates":[[[166.9574,-0.5113],[166.9583,-0.5177],[166.9532,-0.5334],[166.9453,-0.5323],[166.9355,-0.5298],[166.9361,-0.5252],[166.9365,-0.5224],[166.9368,-0.5202],[166.9372,-0.5165],[166.9376,-0.5137],[166.938,-0.5105],[166.939,-0.5042],[166.9467,-0.5087],[166.9574,-0.5113]]]}},{"type":"Feature","properties":{"name":"Ijuw","name_en":"Ijuw","geonunit":"Nauru","adm0_a3":"NRU","iso_3166_2":"NR-10","adm1_code":"NRU-4980"},"geometry":{"type":"Polygon","coordinates":[[[166.9556,-0.498],[166.9574,-0.5113],[166.9467,-0.5087],[166.939,-0.5042],[166.9556,-0.498]]]}},{"type":"Feature","properties":{"name":"Anabar","name_en":"Anabar","geonunit":"Nauru","adm0_a3":"NRU","iso_3166_2":"NR-02","adm1_code":"NRU-4979"},"geometry":{"type":"Polygon","coordinates":[[[166.9388,-0.4904],[166.9556,-0.498],[166.939,-0.5042],[166.9388,-0.4904]]]}},{"type":"Feature","properties":{"name":"Buada","name_en":"Buada","geonunit":"Nauru","adm0_a3":"NRU","iso_3166_2":"NR-07","adm1_code":"NRU-4970"},"geometry":{"type":"Polygon","coordinates":[[[166.9361,-0.5252],[166.9355,-0.5298],[166.9253,-0.5344],[166.9201,-0.5388],[166.9179,-0.5351],[166.9162,-0.5291],[166.9169,-0.5242],[166.9204,-0.5207],[166.9285,-0.5228],[166.9361,-0.5252]]]}}]}